
# Worst residual: 32.86 km
# MJD 60186.000000 (2023 Aug 30  0:00)
1963-039C = Vela 1B
1 00692U 63039C   23242.49919926  .00000000  00000-0  00000-0 0 18158
2 00692 011.5883 013.0771 5805336 229.5436 026.1429 00.22154681    08

# Worst residual: 7.97 km
# MJD 60187.000000 (2023 Aug 31  0:00)
1963-039C = Vela 1B
1 00692U 63039C   23243.49919926  .00000000  00000-0  00000-0 0 18159
2 00692 011.5886 013.1581 5827350 229.4477 105.4616 00.22105746    02

# Worst residual: 11.97 km
# MJD 60188.000000 (2023 Sep  1  0:00)
1963-039C = Vela 1B
1 00692U 63039C   23244.49919926  .00000000  00000-0  00000-0 0 18150
2 00692 011.5955 013.2247 5832389 229.3155 185.2187 00.22125349    09

# Worst residual: 22.02 km
# MJD 60189.000000 (2023 Sep  2  0:00)
1963-039C = Vela 1B
1 00692U 63039C   23245.49919926  .00000000  00000-0  00000-0 0 18151
2 00692 011.6053 013.2868 5829060 229.0953 265.2014 00.22083571    01

# Worst residual: 28.87 km
# MJD 60190.000000 (2023 Sep  3  0:00)
1963-039C = Vela 1B
1 00692U 63039C   23246.49919926  .00000000  00000-0  00000-0 0 18152
2 00692 011.6137 013.3655 5841781 229.0126 344.7815 00.22034364    03

# Worst residual: 6.82 km
# MJD 60191.000000 (2023 Sep  4  0:00)
1963-039C = Vela 1B
1 00692U 63039C   23247.49919926  .00000000  00000-0  00000-0 0 18153
2 00692 011.6300 013.3726 5830507 229.1253 064.2185 00.22094154    07

# Worst residual: 16.13 km
# MJD 60192.000000 (2023 Sep  5  0:00)
1963-039C = Vela 1B
1 00692U 63039C   23248.49919926  .00000000  00000-0  00000-0 0 18154
2 00692 011.7138 013.5994 5825886 229.1198 143.1955 00.22029436    01

# Worst residual: 13.93 km
# MJD 60193.000000 (2023 Sep  6  0:00)
1963-039C = Vela 1B
1 00692U 63039C   23249.49919926  .00000000  00000-0  00000-0 0 18155
2 00692 011.8234 014.2202 5826383 228.6907 221.9462 00.22027382    00

# Worst residual: 10.24 km
# MJD 60194.000000 (2023 Sep  7  0:00)
1963-039C = Vela 1B
1 00692U 63039C   23250.49919926  .00000000  00000-0  00000-0 0 18157
2 00692 011.8548 014.6438 5833263 228.3832 301.1198 00.22054119    07

# Worst residual: 32.47 km
# MJD 60195.000000 (2023 Sep  8  0:00)
1963-039C = Vela 1B
1 00692U 63039C   23251.49919926  .00000000  00000-0  00000-0 0 18158
2 00692 011.8414 014.7262 5845153 228.4515 020.4211 00.22011427    07

# Worst residual: 13.71 km
# MJD 60196.000000 (2023 Sep  9  0:00)
1963-039C = Vela 1B
1 00692U 63039C   23252.49919926  .00000000  00000-0  00000-0 0 18159
2 00692 011.8628 014.7567 5832697 228.4209 099.9404 00.22065057    04

# Worst residual: 10.63 km
# MJD 60197.000000 (2023 Sep 10  0:00)
1963-039C = Vela 1B
1 00692U 63039C   23253.49919926  .00000000  00000-0  00000-0 0 18150
2 00692 011.8634 014.8009 5835518 228.2511 179.7637 00.22099461    03

# Worst residual: 6.34 km
# MJD 60198.000000 (2023 Sep 11  0:00)
1963-039C = Vela 1B
1 00692U 63039C   23254.49919926  .00000000  00000-0  00000-0 0 18151
2 00692 011.8767 014.9030 5831660 228.0801 259.4452 00.22079621    06

# Worst residual: 19.43 km
# MJD 60199.000000 (2023 Sep 12  0:00)
1963-039C = Vela 1B
1 00692U 63039C   23255.49919926  .00000000  00000-0  00000-0 0 18152
2 00692 011.8866 015.0481 5820711 227.9445 338.7722 00.22104757    05

# Worst residual: 16.62 km
# MJD 60200.000000 (2023 Sep 13  0:00)
1963-039C = Vela 1B
1 00692U 63039C   23256.49919926  .00000000  00000-0  00000-0 0 18153
2 00692 011.8981 015.1067 5824698 227.8940 058.2198 00.22087281    04

# Worst residual: 2.27 km
# MJD 60201.000000 (2023 Sep 14  0:00)
1963-039C = Vela 1B
1 00692U 63039C   23257.49919926  .00000000  00000-0  00000-0 0 18154
2 00692 011.9069 015.1801 5829398 227.8788 137.4935 00.22069009    07

# Worst residual: 12.25 km
# MJD 60202.000000 (2023 Sep 15  0:00)
1963-039C = Vela 1B
1 00692U 63039C   23258.49919926  .00000000  00000-0  00000-0 0 18155
2 00692 011.9145 015.2372 5831045 227.7818 217.0651 00.22071521    03

# Worst residual: 24.73 km
# MJD 60203.000000 (2023 Sep 16  0:00)
1963-039C = Vela 1B
1 00692U 63039C   23259.49919926  .00000000  00000-0  00000-0 0 18156
2 00692 011.9253 015.2912 5837025 227.5935 296.8040 00.22019990    04

# Worst residual: 21.37 km
# MJD 60204.000000 (2023 Sep 17  0:00)
1963-039C = Vela 1B
1 00692U 63039C   23260.49919926  .00000000  00000-0  00000-0 0 18158
2 00692 011.9314 015.3502 5837702 227.6963 016.0905 00.22082301    00

# Worst residual: 7.30 km
# MJD 60205.000000 (2023 Sep 18  0:00)
1963-039C = Vela 1B
1 00692U 63039C   23261.49919926  .00000000  00000-0  00000-0 0 18159
2 00692 011.9485 015.4088 5838115 227.6513 095.5412 00.22091397    09

# Worst residual: 2.05 km
# MJD 60206.000000 (2023 Sep 19  0:00)
1963-039C = Vela 1B
1 00692U 63039C   23262.49919926  .00000000  00000-0  00000-0 0 18150
2 00692 011.9515 015.4566 5837650 227.6692 174.8591 00.22078115    07

# Worst residual: 10.36 km
# MJD 60207.000000 (2023 Sep 20  0:00)
1963-039C = Vela 1B
1 00692U 63039C   23263.49919926  .00000000  00000-0  00000-0 0 18151
2 00692 011.9534 015.4560 5835165 227.6398 254.3754 00.22063728    03

# Worst residual: 39.85 km
# MJD 60208.000000 (2023 Sep 21  0:00)
1963-039C = Vela 1B
1 00692U 63039C   23264.49919926  .00000000  00000-0  00000-0 0 18152
2 00692 011.9608 015.5756 5848929 227.4864 333.9322 00.22003560    04

# Worst residual: 32.70 km
# MJD 60209.000000 (2023 Sep 22  0:00)
1963-039C = Vela 1B
1 00692U 63039C   23265.49919926  .00000000  00000-0  00000-0 0 18153
2 00692 011.9636 015.5383 5842626 227.7700 053.1170 00.22019201    02

# Worst residual: 4.63 km
# MJD 60210.000000 (2023 Sep 23  0:00)
1963-039C = Vela 1B
1 00692U 63039C   23266.49919926  .00000000  00000-0  00000-0 0 18154
2 00692 011.9807 015.6082 5834721 227.6352 132.7116 00.22063120    01

# Worst residual: 1.79 km
# MJD 60211.000000 (2023 Sep 24  0:00)
1963-039C = Vela 1B
1 00692U 63039C   23267.49919926  .00000000  00000-0  00000-0 0 18155
2 00692 011.9879 015.6633 5836965 227.5872 212.1206 00.22069023    01

# Worst residual: 15.15 km
# MJD 60212.000000 (2023 Sep 25  0:00)
1963-039C = Vela 1B
1 00692U 63039C   23268.49919926  .00000000  00000-0  00000-0 0 18156
2 00692 011.9997 015.7460 5835565 227.5848 291.3726 00.22089393    07

# Worst residual: 30.88 km
# MJD 60213.000000 (2023 Sep 26  0:00)
1963-039C = Vela 1B
1 00692U 63039C   23269.49919926  .00000000  00000-0  00000-0 0 18157
2 00692 012.0082 015.8265 5821704 227.4893 010.8258 00.22157084    04

# Worst residual: 12.40 km
# MJD 60214.000000 (2023 Sep 27  0:00)
1963-039C = Vela 1B
1 00692U 63039C   23270.49919926  .00000000  00000-0  00000-0 0 18159
2 00692 012.0135 015.9079 5840824 227.3713 090.2065 00.22104072    08

# Worst residual: 7.63 km
# MJD 60215.000000 (2023 Sep 28  0:00)
1963-039C = Vela 1B
1 00692U 63039C   23271.49919926  .00000000  00000-0  00000-0 0 18150
2 00692 012.0222 015.9781 5844304 227.2841 169.7905 00.22112366    03
